[
    {
        "Altitude(m)": 607886.7303214256,
        "Argument of Periapsis(deg)": 0.0,
        "Eccentricity": 0.0,
        "Inclination(deg)": 60.0,
        "Latitude(deg)": 40.99854894696751,
        "Longitude(deg)": 49.97287985402501,
        "Mean Anomaly(deg)": 49.09089999999999,
        "RAAN(deg)": 120.0,
        "Satellite Name": "Test1 531",
        "Satellite Number": 531,
        "Semi-Major Axis(m)": 6980739.136638005,
        "Time(s)": 0
    },
    {
        "Altitude(m)": 607987.644822375,
        "Argument of Periapsis(deg)": 0.00010418945913296404,
        "Eccentricity": 0.0,
        "Inclination(deg)": 60.0,
        "Latitude(deg)": 41.463640024961954,
        "Longitude(deg)": 50.477106896600965,
        "Mean Anomaly(deg)": 49.71100614546182,
        "RAAN(deg)": 119.99957995086024,
        "Satellite Name": "Test1 531",
        "Satellite Number": 531,
        "Semi-Major Axis(m)": 6980739.136638005,
        "Time(s)": 10
    }
]